{
  "type": "FeatureCollection",
  "features": [
    {
      "type": "Feature",
      "properties": {
        "norad_id": 66561,
        "name": "STARLINK-35305",
        "group": "last-30-days",
        "lat": 28.20954223079716,
        "lon": -155.53489923325225,
        "alt_km": 353.58677857391376,
        "timestamp": "2025-12-04T13:51:59.227820+00:00",
        "meta_object_name": "STARLINK-35305",
        "meta_object_id": "2025-268E",
        "meta_epoch": "2025-12-04T08:00:01.999872",
        "meta_mean_motion": 15.71621545,
        "meta_eccentricity": 0.00014842,
        "meta_inclination": 42.9992,
        "meta_ra_of_asc_node": 170.7935,
        "meta_arg_of_pericenter": 272.2371,
        "meta_mean_anomaly": 187.6339,
        "meta_ephemeris_type": 0,
        "meta_classification_type": "U",
        "meta_norad_cat_id": 66561,
        "meta_element_set_no": 999,
        "meta_rev_at_epoch": 326,
        "meta_bstar": -0.016387242,
        "meta_mean_motion_dot": -0.01926854,
        "meta_mean_motion_ddot": 0,
        "tle_line1": "1 66561U 25268E   25338.33335648 -.01926854  00000+0 -16387-1 0  9995",
        "tle_line2": "2 66561  42.9992 170.7935 0001484 272.2371 187.6339 15.71621545  3269"
      },
      "geometry": {
        "type": "Point",
        "coordinates": [
          -155.53489923325225,
          28.20954223079716
        ]
      }
    },
    {
      "type": "Feature",
      "properties": {
        "norad_id": 66562,
        "name": "STARLINK-35579",
        "group": "last-30-days",
        "lat": 27.12791990702712,
        "lon": -157.3210347627233,
        "alt_km": 353.77876071276205,
        "timestamp": "2025-12-04T13:51:59.227831+00:00",
        "meta_object_name": "STARLINK-35579",
        "meta_object_id": "2025-268F",
        "meta_epoch": "2025-12-04T08:00:01.999872",
        "meta_mean_motion": 15.71623877,
        "meta_eccentricity": 0.00015126,
        "meta_inclination": 42.9992,
        "meta_ra_of_asc_node": 170.7979,
        "meta_arg_of_pericenter": 270.1073,
        "meta_mean_anomaly": 187.8446,
        "meta_ephemeris_type": 0,
        "meta_classification_type": "U",
        "meta_norad_cat_id": 66562,
        "meta_element_set_no": 999,
        "meta_rev_at_epoch": 331,
        "meta_bstar": -0.016407243,
        "meta_mean_motion_dot": -0.0192913,
        "meta_mean_motion_ddot": 0,
        "tle_line1": "1 66562U 25268F   25338.33335648 -.01929130  00000+0 -16407-1 0  9999",
        "tle_line2": "2 66562  42.9992 170.7979 0001512 270.1073 187.8446 15.71623877  3313"
      },
      "geometry": {
        "type": "Point",
        "coordinates": [
          -157.3210347627233,
          27.12791990702712
        ]
      }
    },
    {
      "type": "Feature",
      "properties": {
        "norad_id": 66563,
        "name": "STARLINK-35437",
        "group": "last-30-days",
        "lat": 29.266900122352,
        "lon": -153.71419979466765,
        "alt_km": 353.43574937743506,
        "timestamp": "2025-12-04T13:51:59.227843+00:00",
        "meta_object_name": "STARLINK-35437",
        "meta_object_id": "2025-268G",
        "meta_epoch": "2025-12-04T08:00:01.999872",
        "meta_mean_motion": 15.71623802,
        "meta_eccentricity": 0.0001554,
        "meta_inclination": 42.9992,
        "meta_ra_of_asc_node": 170.7883,
        "meta_arg_of_pericenter": 274.3827,
        "meta_mean_anomaly": 187.4026,
        "meta_ephemeris_type": 0,
        "meta_classification_type": "U",
        "meta_norad_cat_id": 66563,
        "meta_element_set_no": 999,
        "meta_rev_at_epoch": 331,
        "meta_bstar": -0.016402885,
        "meta_mean_motion_dot": -0.01928703,
        "meta_mean_motion_ddot": 0,
        "tle_line1": "1 66563U 25268G   25338.33335648 -.01928703  00000+0 -16403-1 0  9991",
        "tle_line2": "2 66563  42.9992 170.7883 0001554 274.3827 187.4026 15.71623802  3315"
      },
      "geometry": {
        "type": "Point",
        "coordinates": [
          -153.71419979466765,
          29.266900122352
        ]
      }
    },
    {
      "type": "Feature",
      "properties": {
        "norad_id": 66564,
        "name": "STARLINK-35358",
        "group": "last-30-days",
        "lat": 30.298799043066346,
        "lon": -151.855278421789,
        "alt_km": 353.3367916261095,
        "timestamp": "2025-12-04T13:51:59.227853+00:00",
        "meta_object_name": "STARLINK-35358",
        "meta_object_id": "2025-268H",
        "meta_epoch": "2025-12-04T08:00:01.999872",
        "meta_mean_motion": 15.71622858,
        "meta_eccentricity": 0.00015225,
        "meta_inclination": 42.9991,
        "meta_ra_of_asc_node": 170.7837,
        "meta_arg_of_pericenter": 271.2077,
        "meta_mean_anomaly": 192.4962,
        "meta_ephemeris_type": 0,
        "meta_classification_type": "U",
        "meta_norad_cat_id": 66564,
        "meta_element_set_no": 999,
        "meta_rev_at_epoch": 326,
        "meta_bstar": -0.016398559,
        "meta_mean_motion_dot": -0.01928159,
        "meta_mean_motion_ddot": 0,
        "tle_line1": "1 66564U 25268H   25338.33335648 -.01928159  00000+0 -16399-1 0  9991",
        "tle_line2": "2 66564  42.9991 170.7837 0001522 271.2077 192.4962 15.71622858  3261"
      },
      "geometry": {
        "type": "Point",
        "coordinates": [
          -151.855278421789,
          30.298799043066346
        ]
      }
    },
    {
      "type": "Feature",
      "properties": {
        "norad_id": 66565,
        "name": "STARLINK-35893",
        "group": "last-30-days",
        "lat": 31.30377330729253,
        "lon": -149.95773512660992,
        "alt_km": 353.2671319599258,
        "timestamp": "2025-12-04T13:51:59.227864+00:00",
        "meta_object_name": "STARLINK-35893",
        "meta_object_id": "2025-268J",
        "meta_epoch": "2025-12-04T08:00:01.999872",
        "meta_mean_motion": 15.71617323,
        "meta_eccentricity": 0.00016089,
        "meta_inclination": 42.9991,
        "meta_ra_of_asc_node": 170.7787,
        "meta_arg_of_pericenter": 269.9405,
        "meta_mean_anomaly": 195.6829,
        "meta_ephemeris_type": 0,
        "meta_classification_type": "U",
        "meta_norad_cat_id": 66565,
        "meta_element_set_no": 999,
        "meta_rev_at_epoch": 331,
        "meta_bstar": -0.016337765,
        "meta_mean_motion_dot": -0.01921486,
        "meta_mean_motion_ddot": 0,
        "tle_line1": "1 66565U 25268J   25338.33335648 -.01921486  00000+0 -16338-1 0  9991",
        "tle_line2": "2 66565  42.9991 170.7787 0001608 269.9405 195.6829 15.71617323  3314"
      },
      "geometry": {
        "type": "Point",
        "coordinates": [
          -149.95773512660992,
          31.30377330729253
        ]
      }
    },
    {
      "type": "Feature",
      "properties": {
        "norad_id": 66566,
        "name": "STARLINK-35871",
        "group": "last-30-days",
        "lat": 32.28028046050985,
        "lon": -148.01929083806118,
        "alt_km": 353.144046245362,
        "timestamp": "2025-12-04T13:51:59.227874+00:00",
        "meta_object_name": "STARLINK-35871",
        "meta_object_id": "2025-268K",
        "meta_epoch": "2025-12-04T08:00:01.999872",
        "meta_mean_motion": 15.71615747,
        "meta_eccentricity": 0.00016104,
        "meta_inclination": 42.9992,
        "meta_ra_of_asc_node": 170.774,
        "meta_arg_of_pericenter": 269.597,
        "meta_mean_anomaly": 197.9445,
        "meta_ephemeris_type": 0,
        "meta_classification_type": "U",
        "meta_norad_cat_id": 66566,
        "meta_element_set_no": 999,
        "meta_rev_at_epoch": 331,
        "meta_bstar": -0.016326805,
        "meta_mean_motion_dot": -0.0192023,
        "meta_mean_motion_ddot": 0,
        "tle_line1": "1 66566U 25268K   25338.33335648 -.01920230  00000+0 -16327-1 0  9996",
        "tle_line2": "2 66566  42.9992 170.7740 0001610 269.5970 197.9445 15.71615747  3318"
      },
      "geometry": {
        "type": "Point",
        "coordinates": [
          -148.01929083806118,
          32.28028046050985
        ]
      }
    },
    {
      "type": "Feature",
      "properties": {
        "norad_id": 66567,
        "name": "STARLINK-35825",
        "group": "last-30-days",
        "lat": 33.226467093253895,
        "lon": -146.03859153971155,
        "alt_km": 352.8983460080726,
        "timestamp": "2025-12-04T13:51:59.227886+00:00",
        "meta_object_name": "STARLINK-35825",
        "meta_object_id": "2025-268L",
        "meta_epoch": "2025-12-04T08:00:01.999872",
        "meta_mean_motion": 15.71622616,
        "meta_eccentricity": 0.00014566,
        "meta_inclination": 42.9991,
        "meta_ra_of_asc_node": 170.7694,
        "meta_arg_of_pericenter": 271.818,
        "meta_mean_anomaly": 197.6374,
        "meta_ephemeris_type": 0,
        "meta_classification_type": "U",
        "meta_norad_cat_id": 66567,
        "meta_element_set_no": 999,
        "meta_rev_at_epoch": 331,
        "meta_bstar": -0.016400412,
        "meta_mean_motion_dot": -0.01928283,
        "meta_mean_motion_ddot": 0,
        "tle_line1": "1 66567U 25268L   25338.33335648 -.01928283  00000+0 -16400-1 0  9995",
        "tle_line2": "2 66567  42.9991 170.7694 0001456 271.8180 197.6374 15.71622616  3314"
      },
      "geometry": {
        "type": "Point",
        "coordinates": [
          -146.03859153971155,
          33.226467093253895
        ]
      }
    }
  ]
}